[{"OBJECT_NAME":"STARLINK-4778","OBJECT_ID":"2022-114U","EPOCH":"2026-03-09T20:31:14.377728","MEAN_MOTION":15.08832122,"ECCENTRICITY":0.0001306,"INCLINATION":53.2188,"RA_OF_ASC_NODE":293.579,"ARG_OF_PERICENTER":85.4785,"MEAN_ANOMALY":274.6356,"EPHEMERIS_TYPE":0,"CLASSIFICATION_TYPE":"U","NORAD_CAT_ID":53836,"ELEMENT_SET_NO":999,"REV_AT_EPOCH":19299,"BSTAR":-0.00018423383,"MEAN_MOTION_DOT":-3.218e-5,"MEAN_MOTION_DDOT":0},{"OBJECT_NAME":"UNKNOWN","OBJECT_ID":"","EPOCH":"2026-03-07T17:21:07.805664","MEAN_MOTION":15.09455608,"ECCENTRICITY":0.0009057,"INCLINATION":82.8696,"RA_OF_ASC_NODE":177.6495,"ARG_OF_PERICENTER":167.3062,"MEAN_ANOMALY":192.8398,"EPHEMERIS_TYPE":0,"CLASSIFICATION_TYPE":"U","NORAD_CAT_ID":87725,"ELEMENT_SET_NO":999,"REV_AT_EPOCH":64668,"BSTAR":0.0060116,"MEAN_MOTION_DOT":0.00097492,"MEAN_MOTION_DDOT":0}]
